NORAD_CAT_ID,OBJECT_NAME,OBJECT_TYPE,EPOCH,MEAN_MOTION,ECCENTRICITY,INCLINATION,RA_OF_ASC_NODE,ARG_OF_PERICENTER,MEAN_ANOMALY,BSTAR,MEAN_MOTION_DOT,MEAN_MOTION_DDOT,TLE_LINE0,TLE_LINE1,TLE_LINE2,SEMIMAJOR_AXIS,PERIOD,APOGEE,PERIGEE,DECAYED
52617.0,STARLINK-3996,PAYLOAD,2024-01-12 13:09:10,15.08833639,0.0001423,53.215,202.7398,96.7418,263.3736,0.00011305,1.511e-05,0.0,0 STARLINK-3996,1 52617U 22052V   24012.54803516  .00001511  00000-0  11305-3 0  9994,2 52617  53.2150 202.7398 0001423  96.7418 263.3736 15.08833639 92158,6917.9,95.438,540.749,538.78,0.0
52617.0,STARLINK-3996,PAYLOAD,2024-01-12 19:30:42,15.0883442,0.0001419,53.2151,201.5494,100.3391,259.7761,0.00010113,1.322e-05,0.0,0 STARLINK-3996,1 52617U 22052V   24012.81299541  .00001322  00000-0  10113-3 0  9997,2 52617  53.2151 201.5494 0001419 100.3391 259.7761 15.08834420 92572,6917.897,95.438,540.744,538.781,0.0
52617.0,STARLINK-3996,PAYLOAD,2024-01-13 22:32:16,15.08839019,0.0001361,53.2163,196.4935,100.486,259.6286,6.4557e-05,7.4e-06,0.0,0 STARLINK-3996,1 52617U 22052V   24013.93907718  .00000740  00000-0  64557-4 0  9998,2 52617  53.2163 196.4935 0001361 100.4860 259.6286 15.08839019 92744,6917.883,95.438,540.69,538.807,0.0
52617.0,STARLINK-3996,PAYLOAD,2024-01-14 11:15:21,15.08838092,0.0001282,53.2162,194.114,98.6806,261.4331,0.00010275,1.348e-05,0.0,0 STARLINK-3996,1 52617U 22052V   24014.46899831  .00001348  00000-0  10275-3 0  9995,2 52617  53.2162 194.1140 0001282  98.6806 261.4331 15.08838092 92445,6917.886,95.438,540.638,538.864,0.0
52617.0,STARLINK-3996,PAYLOAD,2024-01-14 17:36:53,15.08840973,0.0001289,53.2161,192.9248,98.3677,261.7462,0.00012255,1.663e-05,0.0,0 STARLINK-3996,1 52617U 22052V   24014.73395675  .00001663  00000-0  12255-3 0  9992,2 52617  53.2161 192.9248 0001289  98.3677 261.7462 15.08840973 92482,6917.877,95.437,540.634,538.851,0.0
52617.0,STARLINK-3996,PAYLOAD,2024-01-15 19:03:03,15.08845409,0.0001253,53.216,188.1671,94.7985,265.315,0.00011873,1.602e-05,0.0,0 STARLINK-3996,1 52617U 22052V   24015.79379441  .00001602  00000-0  11873-3 0  9990,2 52617  53.2160 188.1671 0001253  94.7985 265.3150 15.08845409 93025,6917.864,95.437,540.596,538.862,0.0
52617.0,STARLINK-3996,PAYLOAD,2024-01-16 10:56:55,15.08840711,0.0001505,53.2167,185.1946,77.5777,282.5383,6.7266e-05,7.83e-06,0.0,0 STARLINK-3996,1 52617U 22052V   24016.45619995  .00000783  00000-0  67266-4 0  9992,2 52617  53.2167 185.1946 0001505  77.5777 282.5383 15.08840711 93123,6917.878,95.438,540.784,538.702,0.0
52617.0,STARLINK-3996,PAYLOAD,2024-01-16 17:18:28,15.08840487,0.0001491,53.2166,184.0049,77.6449,282.471,5.19e-05,5.38e-06,0.0,0 STARLINK-3996,1 52617U 22052V   24016.72116008  .00000538  00000-0  51900-4 0  9995,2 52617  53.2166 184.0049 0001491  77.6449 282.4710 15.08840487 92789,6917.879,95.438,540.775,538.712,0.0
52617.0,STARLINK-3996,PAYLOAD,2024-01-16 22:04:37,15.08848195,0.0001128,53.216,183.1106,75.7974,284.3143,6.1527e-05,6.92e-06,0.0,0 STARLINK-3996,1 52617U 22052V   24016.91987272  .00000692  00000-0  61527-4 0  9992,2 52617  53.2160 183.1106 0001128  75.7974 284.3143 15.08848195 93197,6917.855,95.437,540.501,538.94,0.0
52617.0,STARLINK-3996,PAYLOAD,2024-01-17 13:58:29,15.08838207,0.0001496,53.2166,180.1373,74.6113,285.5045,2.0029e-05,3.1e-07,0.0,0 STARLINK-3996,1 52617U 22052V   24017.58228235  .00000031  00000-0  20029-4 0  9992,2 52617  53.2166 180.1373 0001496  74.6113 285.5045 15.08838207 92913,6917.886,95.438,540.786,538.716,0.0
52617.0,STARLINK-3996,PAYLOAD,2024-01-17 17:09:15,15.08841661,0.0001403,53.2169,179.5391,85.2022,274.9131,7.8873e-06,-1.62e-06,0.0,0 STARLINK-3996,1 52617U 22052V   24017.71475886 -.00000162  00000-0  78873-5 0  9990,2 52617  53.2169 179.5391 0001403  85.2022 274.9131 15.08841661 93314,6917.875,95.437,540.711,538.77,0.0
52617.0,STARLINK-3996,PAYLOAD,2024-01-18 10:38:27,15.08864562,0.0001471,53.2171,176.2646,125.074,235.039,0.0001414,1.965e-05,0.0,0 STARLINK-3996,1 52617U 22052V   24018.44337587  .00001965  00000-0  14140-3 0  9992,2 52617  53.2171 176.2646 0001471 125.0740 235.0390 15.08864562 93421,6917.805,95.436,540.688,538.653,0.0
52617.0,STARLINK-3996,PAYLOAD,2024-01-18 13:49:14,15.08860307,0.000129,53.2166,175.6663,125.1731,234.9382,6.2984e-05,7.15e-06,0.0,0 STARLINK-3996,1 52617U 22052V   24018.57585921  .00000715  00000-0  62984-4 0  9995,2 52617  53.2166 175.6663 0001290 125.1731 234.9382 15.08860307 93069,6917.818,95.436,540.576,538.791,0.0
52617.0,STARLINK-3996,PAYLOAD,2024-01-18 17:00:01,15.08845763,0.0001313,53.2162,175.0801,75.049,285.0647,3.9399e-05,3.39e-06,0.0,0 STARLINK-3996,1 52617U 22052V   24018.70834873  .00000339  00000-0  39399-4 0  9999,2 52617  53.2162 175.0801 0001313  75.0490 285.0647 15.08845763 93468,6917.863,95.437,540.636,538.819,0.0
52617.0,STARLINK-3996,PAYLOAD,2024-01-18 20:10:47,15.08850921,0.0001006,53.2162,174.4872,84.2368,275.8738,8.4229e-05,1.053e-05,0.0,0 STARLINK-3996,1 52617U 22052V   24018.84082273  .00001053  00000-0  84229-4 0  9999,2 52617  53.2162 174.4872 0001006  84.2368 275.8738 15.08850921 93105,6917.847,95.437,540.408,539.016,0.0
52617.0,STARLINK-3996,PAYLOAD,2024-01-19 10:29:17,15.08827832,0.0001321,53.2178,171.803,116.1557,243.9571,1.878e-06,-2.58e-06,0.0,0 STARLINK-3996,1 52617U 22052V   24019.43700250 -.00000258  00000-0  18780-5 0  9994,2 52617  53.2178 171.8030 0001321 116.1557 243.9571 15.08827832 93571,6917.918,95.438,540.696,538.869,0.0
52617.0,STARLINK-3996,PAYLOAD,2024-01-19 13:40:03,15.08834337,0.0001346,53.2162,171.2101,97.2523,262.8622,-4.6195e-05,-1.023e-05,0.0,0 STARLINK-3996,1 52617U 22052V   24019.56948141 -.00001023  00000-0 -46195-4 0  9993,2 52617  53.2162 171.2101 0001346  97.2523 262.8622 15.08834337 93212,6917.898,95.438,540.694,538.832,0.0
52617.0,STARLINK-3996,PAYLOAD,2024-01-19 16:50:49,15.08834608,0.0001282,53.2164,170.6162,78.4843,281.6293,-7.9429e-05,-1.552e-05,0.0,0 STARLINK-3996,1 52617U 22052V   24019.70196247 -.00001552  00000-0 -79429-4 0  9994,2 52617  53.2164 170.6162 0001282  78.4843 281.6293 15.08834608 93235,6917.897,95.438,540.649,538.875,0.0
52617.0,STARLINK-3996,PAYLOAD,2024-01-20 15:06:13,15.08835147,0.0001313,53.2161,166.4564,80.3783,279.7357,5.1433e-05,5.31e-06,0.0,0 STARLINK-3996,1 52617U 22052V   24020.62932014  .00000531  00000-0  51433-4 0  9996,2 52617  53.2161 166.4564 0001313  80.3783 279.7357 15.08835147 93374,6917.895,95.438,540.669,538.852,0.0
52617.0,STARLINK-3996,PAYLOAD,2024-01-20 16:41:36,15.08838378,0.0001343,53.2164,166.159,81.5454,278.5691,7.6942e-05,9.37e-06,0.0,0 STARLINK-3996,1 52617U 22052V   24020.69555791  .00000937  00000-0  76942-4 0  9998,2 52617  53.2164 166.1590 0001343  81.5454 278.5691 15.08838378 93764,6917.885,95.438,540.679,538.821,0.0
52617.0,STARLINK-3996,PAYLOAD,2024-01-21 08:35:28,15.08831298,0.0001336,53.2171,163.1906,89.9891,270.1254,0.00019051,2.745e-05,0.0,0 STARLINK-3996,1 52617U 22052V   24021.35796390  .00002745  00000-0  19051-3 0  9990,2 52617  53.2171 163.1906 0001336  89.9891 270.1254 15.08831298 93867,6917.907,95.438,540.696,538.848,0.0
52617.0,STARLINK-3996,PAYLOAD,2024-01-21 14:57:00,15.08833738,0.0001459,53.2172,162.0003,101.8263,258.2893,0.00016406,2.324e-05,0.0,0 STARLINK-3996,1 52617U 22052V   24021.62292395  .00002324  00000-0  16406-3 0  9990,2 52617  53.2172 162.0003 0001459 101.8263 258.2893 15.08833738 93527,6917.9,95.438,540.774,538.755,0.0
52617.0,STARLINK-3996,PAYLOAD,2024-01-22 16:23:11,15.08815112,0.0001475,53.2169,157.2435,92.0418,268.0743,0.00044681,6.825e-05,0.0,0 STARLINK-3996,1 52617U 22052V   24022.68277192  .00006825  00000-0  44681-3 0  9991,2 52617  53.2169 157.2435 0001475  92.0418 268.0743 15.08815112 94068,6917.956,95.439,540.842,538.801,0.0
52617.0,STARLINK-3996,PAYLOAD,2024-01-23 14:38:34,15.08847293,0.000157,53.2171,153.0784,71.3626,288.7537,0.00011795,1.59e-05,0.0,0 STARLINK-3996,1 52617U 22052V   24023.61012209  .00001590  00000-0  11795-3 0  9995,2 52617  53.2171 153.0784 0001570  71.3626 288.7537 15.08847293 94200,6917.858,95.437,540.809,538.637,0.0
52617.0,STARLINK-3996,PAYLOAD,2024-01-24 14:29:22,15.08839688,0.0001759,53.2173,148.6172,64.1381,295.9792,4.6176e-05,4.47e-06,0.0,0 STARLINK-3996,1 52617U 22052V   24024.60373129  .00000447  00000-0  46176-4 0  9998,2 52617  53.2173 148.6172 0001759  64.1381 295.9792 15.08839688 93975,6917.881,95.438,540.963,538.529,0.0
52617.0,STARLINK-3996,PAYLOAD,2024-01-25 14:20:09,15.08846254,0.0001284,53.2157,144.1537,89.2224,270.8915,-5.6577e-05,-1.188e-05,0.0,0 STARLINK-3996,1 52617U 22052V   24025.59732957 -.00001188  00000-0 -56577-4 0  9996,2 52617  53.2157 144.1537 0001284  89.2224 270.8915 15.08846254 94124,6917.861,95.437,540.615,538.838,0.0
52617.0,STARLINK-3996,PAYLOAD,2024-01-26 11:00:09,15.08842348,0.0001334,53.2156,140.2876,99.1178,260.9965,0.00017933,2.567e-05,0.0,0 STARLINK-3996,1 52617U 22052V   24026.45844588  .00002567  00000-0  17933-3 0  9998,2 52617  53.2156 140.2876 0001334  99.1178 260.9965 15.08842348 94631,6917.873,95.437,540.661,538.815,0.0
52617.0,STARLINK-3996,PAYLOAD,2024-01-26 14:10:55,15.08846387,0.0001354,53.2158,139.693,88.0788,272.0359,0.00021202,3.089e-05,0.0,0 STARLINK-3996,1 52617U 22052V   24026.59092360  .00003089  00000-0  21202-3 0  9990,2 52617  53.2158 139.6930 0001354  88.0788 272.0359 15.08846387 94270,6917.861,95.437,540.663,538.789,0.0
52617.0,STARLINK-3996,PAYLOAD,2024-01-27 12:26:20,15.08842418,0.0001349,53.2164,135.5311,101.0158,259.0986,6.6897e-05,7.77e-06,0.0,0 STARLINK-3996,1 52617U 22052V   24027.51829132  .00000777  00000-0  66897-4 0  9999,2 52617  53.2164 135.5311 0001349 101.0158 259.0986 15.08842418 94795,6917.873,95.437,540.671,538.805,0.0
52617.0,STARLINK-3996,PAYLOAD,2024-01-27 14:01:43,15.08843188,0.0001355,53.2162,135.2335,104.2417,255.8725,7.1782e-05,8.55e-06,0.0,0 STARLINK-3996,1 52617U 22052V   24027.58453037  .00000855  00000-0  71782-4 0  9999,2 52617  53.2162 135.2335 0001355 104.2417 255.8725 15.08843188 94426,6917.871,95.437,540.673,538.798,0.0
